BEIDOU-3 M21 (C43)      
1 44794U 19078B   26085.53035061 -.00000029  00000+0  00000+0 0  9997
2 44794  53.9841 302.6991 0005380  37.5776 322.4952  1.86227568 43112
